ACS3                    
1 59588U 24077B   24132.74196245  .00000213  00000+0  28574-3 0  9999
2 59588  97.4069 209.3852 0020122 190.3941 169.6797 13.67676817  2420
